HORYU-4                 
1 41340U 16012D   20147.29525928  .00000373  00000-0  21460-4 0  9998
2 41340  31.0044 112.8942 0013920 288.4391  71.4731 15.01491155234546
E-ST@R-II               
1 41459U 16025D   20147.74086051  .00000426  00000-0  26135-4 0  9995
2 41459  98.1026 256.6022 0163530 284.9470  73.3692 15.06365308224179
AAUSAT 4                
1 41460U 16025E   20147.77839281  .00001823  00000-0  93113-4 0  9993
2 41460  98.1011 258.8944 0152994 273.7014  84.6781 15.08643286224376
BEESAT-4                
1 41619U 16040W   20147.82353438  .00001092  00000-0  48011-4 0  9992
2 41619  97.3206 207.8680 0009389 252.9017 107.1193 15.23961635206108
CANX-7                  
1 41788U 16059F   20147.77604866  .00004796  00000-0  66602-3 0  9996
2 41788  98.2520 235.0655 0024840  14.2364 345.9363 14.78177096196616
RAVAN                   
1 41849U 16067B   20145.30424287  .00000411  00000-0  39523-4 0  9990
2 41849  97.9298 254.7482 0007212 329.0562  31.0234 14.98535060193000
CELTEE 1                
1 41850U 16067C   20147.75012935 -.00000197  00000-0 -11790-4 0  9995
2 41850  97.9250 255.0274 0008102 327.4433  32.6287 14.97172351193252
OPTICUBE 04             
1 41851U 16067D   20147.74358818 -.00000435  00000-0 -32579-4 0  9991
2 41851  97.9243 254.6518 0008269 330.7525  29.3232 14.96918863193230
AEROCUBE 8D             
1 41852U 16067E   20147.75946576  .00000178  00000-0  20799-4 0  9990
2 41852  97.9243 254.5019 0008758 329.2663  30.8044 14.96897085193213
AEROCUBE 8C             
1 41853U 16067F   20147.72368417  .00000381  00000-0  38564-4 0  9995
2 41853  97.9253 254.3723 0009070 333.7566  26.3194 14.96869508193209
PROMETHEUS 2-1          
1 41854U 16067G   20147.29688544  .00000430  00000-0  42506-4 0  9990
2 41854  97.9249 254.2545 0009292 330.7128  29.3572 14.97175748193157
PROMETHEUS 2-3          
1 41855U 16067H   20147.76529918  .00000467  00000-0  45674-4 0  9991
2 41855  97.9253 254.7609 0009420 329.6116  30.4558 14.97186379193223
INS-1B                  
1 41954U 17008G   20147.82123791  .00001060  00000-0  45648-4 0  9994
2 41954  97.3553 212.6078 0009655  28.0440 332.1316 15.24735408182072
BGUSAT                  
1 41999U 17008BD  20146.15111408  .00001865  00000-0  72187-4 0  9991
2 41999  97.3666 214.9820 0008978  43.5089 316.6857 15.27420120181390
DIDO-2                  
1 42000U 17008BE  20147.84550137  .00000629  00000-0  28495-4 0  9998
2 42000  97.3560 213.1454 0009558  45.4411 314.7605 15.24445737181473
PEASSS                  
1 42015U 17008BV  20147.64217539  .00000954  00000-0  40389-4 0  9995
2 42015  97.3584 214.5020 0007539  51.8502 308.3415 15.25573542182025
AL-FARABI 1             
1 42016U 17008BW  20147.60972660  .00001231  00000-0  50065-4 0  9996
2 42016  97.3614 215.4787 0007396  51.5493 308.6409 15.26403392182197
NAYIF-1 (EO-88)         
1 42017U 17008BX  20147.85124227  .00001236  00000-0  50174-4 0  9998
2 42017  97.3606 215.7277 0007442  50.1508 310.0384 15.26444150182253
UCLSAT                  
1 42765U 17036A   20147.81112758  .00000998  00000-0  44651-4 0  9998
2 42765  97.3022 202.6323 0013107 101.3605 258.9106 15.23483697163284
LITUANICASAT-2          
1 42768U 17036D   20147.59885073  .00001817  00000-0  77661-4 0  9991
2 42768  97.3077 202.3646 0016526  93.3472 266.9657 15.23998126162515
AALTO-1                 
1 42775U 17036L   20147.82007805  .00000652  00000-0  31629-4 0  9994
2 42775  97.2999 200.5196 0015628  95.3334 264.9686 15.21813015162382
URSA MAIOR              
1 42776U 17036M   20147.81196626  .00000736  00000-0  35131-4 0  9999
2 42776  97.3011 200.7870 0015442  95.1457 265.1543 15.21993211162391
COMPASS 2               
1 42777U 17036N   20147.81614735  .00001446  00000-0  62681-4 0  9995
2 42777  97.3067 203.0033 0014095  93.7272 266.5578 15.23865762162509
DIAMOND RED             
1 42783U 17036U   20147.59881151  .00000824  00000-0  38090-4 0  9991
2 42783  97.3023 201.7162 0013781 103.7501 256.5271 15.22799438162429
PEGASUS                 
1 42784U 17036V   20147.83202555  .00000969  00000-0  43835-4 0  9997
2 42784  97.3027 202.3509 0013646 102.0749 258.2018 15.23174236162480
DIAMOND GREEN           
1 42785U 17036W   20147.79474604  .00000847  00000-0  39075-4 0  9995
2 42785  97.3025 201.9414 0013690 103.6698 256.6064 15.22799909162525
DIAMOND BLUE            
1 42786U 17036X   20147.79394832  .00000845  00000-0  38990-4 0  9993
2 42786  97.3025 201.9363 0013524 103.8223 256.4520 15.22800263162522
NUDTSAT                 
1 42787U 17036Y   20147.97306362  .00001418  00000-0  60515-4 0  9990
2 42787  97.3070 203.8328 0012292  92.0327 268.2319 15.24462072162420
SUCHAI                  
1 42788U 17036Z   20147.60133757  .00001132  00000-0  49924-4 0  9991
2 42788  97.3036 202.6945 0013196 101.3835 258.8886 15.23715826162552
SKCUBE                  
1 42789U 17036AA  20147.77652883  .00001045  00000-0  46529-4 0  9997
2 42789  97.3030 202.7244 0013080 101.0745 259.1964 15.23561403162493
VZLUSAT-1               
1 42790U 17036AB  20147.83059537  .00001469  00000-0  62585-4 0  9993
2 42790  97.3055 203.6908 0012614  99.0882 261.1784 15.24451560162552
ROBUSTA-1B              
1 42792U 17036AD  20147.73299510  .00001061  00000-0  46931-4 0  9996
2 42792  97.3033 202.9265 0012667 101.5102 258.7558 15.23748009162513
CICERO 6                
1 42793U 17036AE  20147.57939563  .00000744  00000-0  34393-4 0  9994
2 42793  97.3010 202.2124 0011940 104.0614 256.1951 15.23110436162533
D-SAT                   
1 42794U 17036AF  20147.76970436  .00000259  00000-0  27431-4 0  9996
2 42794  97.4950 181.4979 0127792  77.6026 283.9461 14.91269962159464
CORVUS BC2              
1 42846U 17042X   20147.91417646  .00000061  00000-0  11237-4 0  9995
2 42846  97.5258  32.4405 0009545 359.8643   0.2572 14.92100323156194
CORVUS BC1              
1 42847U 17042Y   20147.91133133  .00000100  00000-0  15079-4 0  9994
2 42847  97.5259  32.6034 0009173 359.3906   0.7301 14.92201474156194
MIRATA                  
1 43015U 17073C   20147.83218991  .00000699  00000-0  58714-4 0  9999
2 43015  97.7201  60.8706 0254632 118.9336 243.7670 14.79607256136029
MAKERSAT 0              
1 43016U 17073D   20147.71955128  .00000463  00000-0  40712-4 0  9995
2 43016  97.7237  60.9468 0257338 120.3100 242.3841 14.79185872135981
DELLINGR (RBLE)         
1 43021U 98067NJ  20147.86203215  .00011608  00000-0  98291-4 0  9990
2 43021  51.6365  30.1352 0001012  24.0465 336.0579 15.70226990143470
AEROCUBE 7B (OCSD B)    
1 43042U 17071F   20147.61279127  .00002461  00000-0  63272-4 0  9995
2 43042  51.6362 173.7225 0004428 333.6844  26.3916 15.43469912139008
AEROCUBE 7C (OCSD C)    
1 43043U 17071G   20147.68055142  .00002395  00000-0  61886-4 0  9997
2 43043  51.6363 173.4399 0004695 337.8342  22.2440 15.43444528138983
CHEFSAT                 
1 43044U 17071H   20147.86492216  .00006087  00000-0  12231-3 0  9996
2 43044  51.6364 158.4340 0004703 345.7055  14.3799 15.48085519139204
ASGARDIA 1              
1 43049U 17071N   20147.67459728  .00002298  00000-0  59619-4 0  9993
2 43049  51.6373 172.7207 0002539 359.2605   0.8377 15.43495313138984
ISARA                   
1 43050U 17071P   20147.89770784  .00005006  00000-0  10542-3 0  9998
2 43050  51.6344 160.7880 0002653   2.4911 357.6090 15.47137203139174
PROPCUBE 2 (FAUNA)      
1 43052U 17071R   20146.95512489  .00002528  00000-0  63766-4 0  9995
2 43052  51.6368 174.6842 0002448 354.0995   5.9962 15.43933014138893
CORVUS BC3              
1 43118U 18004H   20147.75031067  .00000657  00000-0  30630-4 0  9997
2 43118  97.4446 218.1991 0011769 123.9575 236.2782 15.23336829131692
MICROMAS-2A             
1 43131U 18004W   20147.86715840  .00001555  00000-0  64731-4 0  9999
2 43131  97.4492 219.9698 0010693 122.3625 237.8649 15.25221674131800
SPACEBEE-4              
1 43139U 18004AE  20147.85352446  .00002359  00000-0  93160-4 0  9996
2 43139  97.4521 221.0855 0010167 122.9648 237.2569 15.26480251131867
SPACEBEE-3              
1 43140U 18004AF  20147.74497152  .00002849  00000-0  10904-3 0  9998
2 43140  97.4537 221.6289 0009881 122.0051 238.2150 15.27353181131884
SPACEBEE-2              
1 43141U 18004AG  20147.85983336  .00003167  00000-0  11985-3 0  9999
2 43141  97.4550 221.9885 0009886 121.1194 239.1016 15.27652142131912
SPACEBEE-1              
1 43142U 18004AH  20147.63610441  .00003308  00000-0  12374-3 0  9990
2 43142  97.4553 222.0122 0009888 121.6900 238.5305 15.27996156131880
CICERO 7                
1 43143U 18004AJ  20147.86886358  .00001294  00000-0  54290-4 0  9994
2 43143  97.4472 220.1583 0008745 129.0135 231.1883 15.25270058131822
GOMX-4B                 
1 43196U 18015E   20147.49042108  .00000344  00000-0  17022-4 0  9997
2 43196  97.4330 276.1972 0018502 177.5638 182.5688 15.24239838128552
GOMX-4A                 
1 43197U 18015F   20147.86117495  .00000690  00000-0  30905-4 0  9990
2 43197  97.4342 276.6468 0018988 176.4089 337.4207 15.24476486128625
1KUNS-PF                
1 43466U 98067NP  20147.79204718  .00328006  60037-4  46423-3 0  9996
2 43466  51.6237   5.1148 0005726 247.1729 112.8679 16.05086696117055
UBAKUSAT                
1 43467U 98067NQ  20147.84227670  .00023249  00000-0  16080-3 0  9992
2 43467  51.6330  32.8807 0000535 115.7428 244.3626 15.74410620116705
CUBERRT                 
1 43546U 98067NU  20146.89577411  .00048364  00000-0  35057-3 0  9995
2 43546  51.6356  37.0942 0002966  22.0866 338.0260 15.72919271106690
TEMPEST-D               
1 43547U 98067NV  20146.25765121  .00004579  00000-0  56822-4 0  9997
2 43547  51.6377  68.9626 0004544 340.0787  20.0029 15.62256810105899
RAINCUBE                
1 43548U 98067NW  20147.86569274  .00023613  00000-0  17184-3 0  9994
2 43548  51.6340  40.5394 0003511  30.1321 329.9879 15.73205241106868
